*******************************************************************************
JPL/HORIZONS                1609 Brenda (1951 NL)          2023-Sep-04 11:13:08
Rec #:    1609 (+COV) Soln.date: 2023-Aug-22_06:29:29   # obs: 6195 (1934-2023)
 
IAU76/J2000 helio. ecliptic osc. elements (au, days, deg., period=Julian yrs):
 
  EPOCH=  2457412.5 ! 2016-Jan-25.00 (TDB)         Residual RMS= .2633
   EC= .2486294085284213   QR= 1.942631297674274   TP= 2456695.2363723773
   OM= 105.3993190218558   W=  228.7129318803767   IN= 18.64071789261246
   A= 2.585450268780923    MA= 170.0507687041629   ADIST= 3.228269239887571
   PER= 4.15731            N= .23708266            ANGMOM= .026791277
   DAN= 2.90165            DDN= 2.08378            L= 332.576911
   B= -13.8969427          MOID= .976623           TP= 2014-Feb-06.7363723773
 
Asteroid physical parameters (km, seconds, rotational period in hours):
   GM= n.a.                RAD= 14.82              ROTPER= 19.776
   H= 10.6                 G= .150                 B-V= .860
                           ALBEDO= .1147           STYP= n.a.

ASTEROID comments: 
1: soln ref.= JPL#56, OCC=0
2: source=ORB
*******************************************************************************


*******************************************************************************
Ephemeris / API_USER Mon Sep  4 11:13:08 2023 Pasadena, USA      / Horizons
*******************************************************************************
Target body name: 1609 Brenda (1951 NL)           {source: JPL#56}
Center body name: Solar System Barycenter (0)     {source: DE441}
Center-site name: BODY CENTER
*******************************************************************************
Start time      : A.D. 2023-Aug-12 00:00:00.0000 TDB
Stop  time      : A.D. 2023-Aug-13 00:00:00.0000 TDB
Step-size       : 2880 minutes
*******************************************************************************
Center geodetic : 0.0, 0.0, 0.0                   {E-lon(deg),Lat(deg),Alt(km)}
Center cylindric: 0.0, 0.0, 0.0                   {E-lon(deg),Dxy(km),Dz(km)}
Center radii    : (undefined)
Small perturbers: Yes                             {source: SB441-N16}
Output units    : KM-S
Calendar mode   : Mixed Julian/Gregorian
Output type     : GEOMETRIC cartesian states
Output format   : 2 (position and velocity)
Reference frame : Ecliptic of J2000.0
*******************************************************************************
Initial IAU76/J2000 heliocentric ecliptic osculating elements (au, days, deg.):
  EPOCH=  2457412.5 ! 2016-Jan-25.00 (TDB)         Residual RMS= .2633         
   EC= .2486294085284213   QR= 1.942631297674274   TP= 2456695.2363723773      
   OM= 105.3993190218558   W=  228.7129318803767   IN= 18.64071789261246       
  Equivalent ICRF heliocentric cartesian coordinates (au, au/d):
   X=-2.620024948279464E+00  Y= 1.320839490876835E+00  Z= 1.331349414667020E+00
  VX=-4.346521009773615E-03 VY=-7.043646863068900E-03 VZ=-8.491738746777210E-04
Asteroid physical parameters (km, seconds, rotational period in hours):        
   GM= n.a.                RAD= 14.82              ROTPER= 19.776              
   H= 10.6                 G= .150                 B-V= .860                   
                           ALBEDO= .1147           STYP= n.a.                  
*******************************************************************************
JDTDB
   X     Y     Z
   VX    VY    VZ
*******************************************************************************
$$SOE
2460168.500000000 = A.D. 2023-Aug-12 00:00:00.0000 TDB 
 X =-9.780081780603039E+07 Y = 4.177750338694062E+08 Z =-5.492120482066631E+06
 VX=-1.577211079870458E+01 VY= 2.363494708833391E-01 VZ= 5.111327909544224E+00
$$EOE
*******************************************************************************
 
TIME

  Barycentric Dynamical Time ("TDB" or T_eph) output was requested. This
continuous coordinate time is equivalent to the relativistic proper time
of a clock at rest in a reference frame co-moving with the solar system
barycenter but outside the system's gravity well. It is the independent
variable in the solar system relativistic equations of motion.

  TDB runs at a uniform rate of one SI second per second and is independent
of irregularities in Earth's rotation.
 
CALENDAR SYSTEM

  Mixed calendar mode was active such that calendar dates after AD 1582-Oct-15
(if any) are in the modern Gregorian system. Dates prior to 1582-Oct-5 (if any)
are in the Julian calendar system, which is automatically extended for dates
prior to its adoption on 45-Jan-1 BC.  The Julian calendar is useful for
matching historical dates. The Gregorian calendar more accurately corresponds
to the Earth's orbital motion and seasons. A "Gregorian-only" calendar mode is
available if such physical events are the primary interest.

REFERENCE FRAME AND COORDINATES

  Ecliptic at the standard reference epoch

    Reference epoch: J2000.0
    X-Y plane: adopted Earth orbital plane at the reference epoch
               Note: IAU76 obliquity of 84381.448 arcseconds wrt ICRF X-Y plane
    X-axis   : ICRF
    Z-axis   : perpendicular to the X-Y plane in the directional (+ or -) sense
               of Earth's north pole at the reference epoch.

  Symbol meaning:

    JDTDB    Julian Day Number, Barycentric Dynamical Time
      X      X-component of position vector (km)
      Y      Y-component of position vector (km)
      Z      Z-component of position vector (km)
      VX     X-component of velocity vector (km/sec)                           
      VY     Y-component of velocity vector (km/sec)                           
      VZ     Z-component of velocity vector (km/sec)                           

ABERRATIONS AND CORRECTIONS

 Geometric state vectors have NO corrections or aberrations applied.

Computations by ...

    Solar System Dynamics Group, Horizons On-Line Ephemeris System
    4800 Oak Grove Drive, Jet Propulsion Laboratory
    Pasadena, CA  91109   USA

    General site: https://ssd.jpl.nasa.gov/
    Mailing list: https://ssd.jpl.nasa.gov/email_list.html
    System news : https://ssd.jpl.nasa.gov/horizons/news.html
    User Guide  : https://ssd.jpl.nasa.gov/horizons/manual.html
    Connect     : browser        https://ssd.jpl.nasa.gov/horizons/app.html#/x
                  API            https://ssd-api.jpl.nasa.gov/doc/horizons.html
                  command-line   telnet ssd.jpl.nasa.gov 6775
                  e-mail/batch   https://ssd.jpl.nasa.gov/ftp/ssd/hrzn_batch.txt
                  scripts        https://ssd.jpl.nasa.gov/ftp/ssd/SCRIPTS
    Author      : Jon.D.Giorgini@jpl.nasa.gov
*******************************************************************************
